NORAD_CAT_ID,OBJECT_NAME,OBJECT_TYPE,EPOCH,MEAN_MOTION,ECCENTRICITY,INCLINATION,RA_OF_ASC_NODE,ARG_OF_PERICENTER,MEAN_ANOMALY,BSTAR,MEAN_MOTION_DOT,MEAN_MOTION_DDOT,TLE_LINE0,TLE_LINE1,TLE_LINE2,SEMIMAJOR_AXIS,PERIOD,APOGEE,PERIGEE,DECAYED
55779.0,STARLINK-5817,PAYLOAD,2023-03-08 20:00:01,15.95636881,0.0037906,69.9999,141.6003,168.4154,251.7218,-0.0019295,-0.00836221,0.00022539,0 STARLINK-5817,1 55779U 23028AQ  23067.83334491 -.00836221  22539-3 -19295-2 0  9997,2 55779  69.9999 141.6003 0037906 168.4154 251.7218 15.95636881  1453,6664.677,90.246,311.805,261.279,0.0
55779.0,STARLINK-5817,PAYLOAD,2023-03-08 21:15:15,15.95814633,0.0038852,69.9952,141.4471,166.0217,194.2078,-0.00026189,-0.00116481,8.7227e-06,0 STARLINK-5817,1 55779U 23028AQ  23067.88560109 -.00116481  87227-5 -26189-3 0  9996,2 55779  69.9952 141.4471 0038852 166.0217 194.2078 15.95814633  1463,6664.182,90.236,311.939,260.156,0.0
55779.0,STARLINK-5817,PAYLOAD,2023-03-09 20:00:01,15.94010245,0.0027501,69.9996,138.6837,171.5292,228.1595,-0.002208,-0.00845618,0.0002262,0 STARLINK-5817,1 55779U 23028AQ  23068.83334491 -.00845618  22620-3 -22080-2 0  9995,2 55779  69.9996 138.6837 0027501 171.5292 228.1595 15.94010245  1612,6669.211,90.338,309.417,272.735,0.0
55779.0,STARLINK-5817,PAYLOAD,2023-03-09 22:00:00,15.93858284,0.0027071,69.9999,138.4406,171.7493,345.9768,-0.0021453,-0.00814181,0.00021055,0 STARLINK-5817,1 55779U 23028AQ  23068.91667824 -.00814181  21055-3 -21453-2 0  9998,2 55779  69.9999 138.4406 0027071 171.7493 345.9768 15.93858284  1625,6669.635,90.347,309.555,273.444,0.0
55779.0,STARLINK-5817,PAYLOAD,2023-03-10 06:00:00,15.93341119,0.0022485,69.9998,137.4699,174.5709,94.8621,-0.0023672,-0.00863912,0.00023372,0 STARLINK-5817,1 55779U 23028AQ  23069.25001157 -.00863912  23372-3 -23672-2 0  9992,2 55779  69.9998 137.4699 0022485 174.5709  94.8621 15.93341119  1679,6671.078,90.376,307.943,277.943,0.0
55779.0,STARLINK-5817,PAYLOAD,2023-03-10 14:00:01,15.92791396,0.0019634,69.9999,136.5007,177.5111,202.9902,-0.0024227,-0.00853964,0.00022747,0 STARLINK-5817,1 55779U 23028AQ  23069.58334491 -.00853964  22747-3 -24227-2 0  9996,2 55779  69.9999 136.5007 0019634 177.5111 202.9902 15.92791396  1731,6672.613,90.407,307.579,281.377,0.0
55779.0,STARLINK-5817,PAYLOAD,2023-03-10 22:00:00,15.92241614,0.0016412,69.9997,135.5313,181.4017,309.5149,-0.0024622,-0.00838716,0.00021878,0 STARLINK-5817,1 55779U 23028AQ  23069.91667824 -.00838716  21878-3 -24622-2 0  9993,2 55779  69.9997 135.5313 0016412 181.4017 309.5149 15.92241614  1783,6674.148,90.439,306.967,285.06,0.0
55779.0,STARLINK-5817,PAYLOAD,2023-03-11 06:00:00,15.91708678,0.0013786,70.0,134.563,188.5422,52.1319,-0.0026023,-0.00858927,0.00022741,0 STARLINK-5817,1 55779U 23028AQ  23070.25001157 -.00858927  22741-3 -26023-2 0  9996,2 55779  70.0000 134.5630 0013786 188.5422  52.1319 15.91708678  1834,6675.638,90.469,306.706,288.3,0.0
55779.0,STARLINK-5817,PAYLOAD,2023-03-11 14:00:01,15.91164165,0.0011895,69.9996,133.5963,196.9835,152.868,-0.0026907,-0.00861602,0.00022748,0 STARLINK-5817,1 55779U 23028AQ  23070.58335648 -.00861602  22748-3 -26907-2 0  9999,2 55779  69.9996 133.5963 0011895 196.9835 152.8680 15.91164165  1884,6677.161,90.5,306.968,291.084,0.0
55779.0,STARLINK-5817,PAYLOAD,2023-03-11 22:00:00,15.90616695,0.0009687,69.9996,132.6293,209.8042,248.4396,-0.0027344,-0.00849661,0.00022046,0 STARLINK-5817,1 55779U 23028AQ  23070.91667824 -.00849661  22046-3 -27344-2 0  9998,2 55779  69.9996 132.6293 0009687 209.8042 248.4396 15.90616695  1942,6678.693,90.531,307.028,294.088,0.0
55779.0,STARLINK-5817,PAYLOAD,2023-03-12 06:00:00,15.9007419,0.0008914,69.9993,131.6633,224.7457,341.3034,-0.0028162,-0.00850763,0.0002198,0 STARLINK-5817,1 55779U 23028AQ  23071.25001157 -.00850763  21980-3 -28162-2 0  9997,2 55779  69.9993 131.6633 0008914 224.7457 341.3034 15.90074190  1999,6680.212,90.562,308.032,296.122,0.0
55779.0,STARLINK-5817,PAYLOAD,2023-03-12 14:00:01,15.8952844,0.0008874,69.9997,130.6985,241.2907,71.9151,-0.0029032,-0.00853202,0.00021979,0 STARLINK-5817,1 55779U 23028AQ  23071.58334491 -.00853202  21979-3 -29032-2 0  9999,2 55779  69.9997 130.6985 0008874 241.2907  71.9151 15.89528440  1302,6681.741,90.593,309.535,297.677,0.0
55779.0,STARLINK-5817,PAYLOAD,2023-03-12 22:00:00,15.8898001,0.0009372,69.9995,129.7342,260.8635,158.8463,-0.002948,-0.00843283,0.00021392,0 STARLINK-5817,1 55779U 23028AQ  23071.91667824 -.00843283  21392-3 -29480-2 0  9999,2 55779  69.9995 129.7342 0009372 260.8635 158.8463 15.88980010  2109,6683.278,90.624,311.407,298.88,0.0
55779.0,STARLINK-5817,PAYLOAD,2023-03-13 14:00:01,15.87877506,0.0007745,69.9998,127.8078,270.782,359.9818,-0.0030007,-0.00749658,0.0,0 STARLINK-5817,1 55779U 23028AQ  23072.58334491 -.00749658  00000-0 -30007-2 0  9992,2 55779  69.9998 127.8078 0007745 270.7820 359.9818 15.87877506  1308,6686.372,90.687,313.415,303.058,0.0
55779.0,STARLINK-5817,PAYLOAD,2023-03-13 22:00:00,15.87356608,0.0005066,69.9999,126.846,279.221,96.0806,-0.0032482,-0.00785828,0.0,0 STARLINK-5817,1 55779U 23028AQ  23072.91667824 -.00785828  00000-0 -32482-2 0  9996,2 55779  69.9999 126.8460 0005066 279.2210  96.0806 15.87356608  1305,6687.834,90.717,313.087,306.311,0.0
55779.0,STARLINK-5817,PAYLOAD,2023-03-14 06:00:00,15.86802673,0.00036,70.0002,125.885,277.8755,201.3245,-0.0032654,-0.00769345,0.0,0 STARLINK-5817,1 55779U 23028AQ  23073.25001157 -.00769345  00000-0 -32654-2 0  9992,2 55779  70.0002 125.8850 0003600 277.8755 201.3245 15.86802673  2312,6689.391,90.749,313.664,308.847,0.0
55779.0,STARLINK-5817,PAYLOAD,2023-03-14 14:00:01,15.8625637,0.0003526,70.0004,124.9245,269.8176,312.6264,-0.0033335,-0.00764975,0.0,0 STARLINK-5817,1 55779U 23028AQ  23073.58334491 -.00764975  00000-0 -33335-2 0  9999,2 55779  70.0004 124.9245 0003526 269.8176 312.6264 15.86256370  1309,6690.926,90.78,315.151,310.432,0.0
55779.0,STARLINK-5817,PAYLOAD,2023-03-14 22:00:00,15.85715014,0.0003688,69.9999,123.9644,276.1646,48.8704,-0.0034464,-0.00769936,0.0,0 STARLINK-5817,1 55779U 23028AQ  23073.91667824 -.00769936  00000-0 -34464-2 0  9991,2 55779  69.9999 123.9644 0003688 276.1646  48.8704 15.85715014  1304,6692.449,90.811,316.782,311.846,0.0
55779.0,STARLINK-5817,PAYLOAD,2023-03-15 06:00:00,15.85171663,0.0003665,70.0002,123.0057,278.1624,148.8111,-0.0035389,-0.00770036,0.0,0 STARLINK-5817,1 55779U 23028AQ  23074.25001157 -.00770036  00000-0 -35389-2 0  9990,2 55779  70.0002 123.0057 0003665 278.1624 148.8111 15.85171663  2472,6693.978,90.842,318.297,313.39,0.0
55779.0,STARLINK-5817,PAYLOAD,2023-03-15 14:00:01,15.84621038,0.0003524,70.0001,122.0478,270.3805,257.8821,-0.0035705,-0.00757574,0.0,0 STARLINK-5817,1 55779U 23028AQ  23074.58334491 -.00757574  00000-0 -35705-2 0  9990,2 55779  70.0001 122.0478 0003524 270.3805 257.8821 15.84621038  1301,6695.529,90.873,319.754,315.035,0.0
55779.0,STARLINK-5817,PAYLOAD,2023-03-15 22:00:00,15.84102731,0.0003552,70.0,121.0902,277.0216,351.8658,-0.0038623,-0.00795936,0.0,0 STARLINK-5817,1 55779U 23028AQ  23074.91667824 -.00795936  00000-0 -38623-2 0  9992,2 55779  70.0000 121.0902 0003552 277.0216 351.8658 15.84102731  1309,6696.989,90.903,321.233,316.476,0.0
55779.0,STARLINK-5817,PAYLOAD,2023-03-16 06:00:00,15.83538137,0.0003646,69.9997,120.1335,275.8004,93.0792,-0.003801,-0.00765217,0.0,0 STARLINK-5817,1 55779U 23028AQ  23075.25001157 -.00765217  00000-0 -38010-2 0  9990,2 55779  69.9997 120.1335 0003646 275.8004  93.0792 15.83538137  2639,6698.581,90.936,322.888,318.004,0.0
55779.0,STARLINK-5817,PAYLOAD,2023-03-16 14:00:01,15.82987071,0.000356,70.0,119.1779,272.2202,195.9936,-0.0038311,-0.00752459,0.0,0 STARLINK-5817,1 55779U 23028AQ  23075.58334491 -.00752459  00000-0 -38311-2 0  9994,2 55779  70.0000 119.1779 0003560 272.2202 195.9936 15.82987071  1302,6700.136,90.967,324.386,319.615,0.0
55779.0,STARLINK-5817,PAYLOAD,2023-03-16 22:00:00,15.82451273,0.0003494,70.0,118.2225,268.3165,298.5743,-0.0040032,-0.00765501,0.0,0 STARLINK-5817,1 55779U 23028AQ  23075.91667824 -.00765501  00000-0 -40032-2 0  9995,2 55779  70.0000 118.2225 0003494 268.3165 298.5743 15.82451273  1304,6701.648,90.998,325.855,321.171,0.0
55779.0,STARLINK-5817,PAYLOAD,2023-03-17 06:00:00,15.81911944,0.0003658,70.0002,117.2682,279.9869,24.9295,-0.0041433,-0.0077202,0.0,0 STARLINK-5817,1 55779U 23028AQ  23076.25001157 -.00772020  00000-0 -41433-2 0  9994,2 55779  70.0002 117.2682 0003658 279.9869  24.9295 15.81911944  2784,6703.171,91.029,327.488,322.584,0.0
55779.0,STARLINK-5817,PAYLOAD,2023-03-17 14:00:01,15.81363158,0.0003622,70.0001,116.3149,273.882,128.4116,-0.0041942,-0.00762584,0.0,0 STARLINK-5817,1 55779U 23028AQ  23076.58334491 -.00762584  00000-0 -41942-2 0  9999,2 55779  70.0001 116.3149 0003622 273.8820 128.4116 15.81363158  1309,6704.722,91.061,329.015,324.158,0.0
55779.0,STARLINK-5817,PAYLOAD,2023-03-17 22:00:00,15.80821178,0.000359,70.0001,115.3617,277.7402,221.2771,-0.0043202,-0.00765725,0.0,0 STARLINK-5817,1 55779U 23028AQ  23076.91667824 -.00765725  00000-0 -43202-2 0  9996,2 55779  70.0001 115.3617 0003590 277.7402 221.2771 15.80821178  1300,6706.254,91.092,330.527,325.712,0.0
55779.0,STARLINK-5817,PAYLOAD,2023-03-18 06:00:00,15.80279562,0.0003515,70.0,114.41,276.1089,318.9789,-0.0044476,-0.00768589,0.0,0 STARLINK-5817,1 55779U 23028AQ  23077.25001157 -.00768589  00000-0 -44476-2 0  9990,2 55779  70.0000 114.4100 0003515 276.1089 318.9789 15.80279562  2945,6707.786,91.123,332.009,327.294,0.0
55779.0,STARLINK-5817,PAYLOAD,2023-03-18 22:00:00,15.79190076,0.0003643,70.0,112.5084,278.0592,147.2175,-0.0046469,-0.00764437,0.0,0 STARLINK-5817,1 55779U 23028AQ  23077.91667824 -.00764437  00000-0 -46469-2 0  9994,2 55779  70.0000 112.5084 0003643 278.0592 147.2175 15.79190076  1308,6710.871,91.186,335.181,330.291,0.0
